STARLINK-36235          
1 68400U 26063W   26162.96556391  .00016164  00000+0  50186-3 0  9996
2 68400  97.2850 305.2855 0000985  86.3048 273.8307 15.33450215 12349
STARLINK-37175          
1 68401U 26063X   26162.92477715  .00013598  00000+0  42294-3 0  9994
2 68401  97.2845 305.1844 0001364  86.2505 273.8894 15.33431120 12334
STARLINK-36360          
1 68402U 26063Y   26162.90302715  .00016898  00000+0  52450-3 0  9991
2 68402  97.2854 305.2157 0001134 106.5201 253.6167 15.33449425 12333
STARLINK-37218          
1 68403U 26063Z   26162.93626865  .00242715  00000+0  15827-2 0  9995
2 68403  97.2839 307.4606 0001296  90.3532 269.7882 15.75184619 12481
STARLINK-37188          
1 68404U 26063AA  26162.94381248  .00019972  00000+0  61923-3 0  9996
2 68404  97.2856 305.3137 0000304 163.0683 197.0570 15.33449905 12349
STARLINK-37262          
1 68508U 26068A   26162.92047009  .00018261  00000+0  55043-3 0  9994
2 68508  53.1598  44.2405 0001284  78.3800 281.7347 15.34391115 11478
STARLINK-36292          
1 68509U 26068B   26162.94248865  .00033321  00000+0  99305-3 0  9993
2 68509  53.1607  49.4726 0001297  75.7406 284.3741 15.34396427 11401
STARLINK-37260          
1 68510U 26068C   26162.92936775  .00029268  00000+0  87371-3 0  9992
2 68510  53.1590  47.9296 0001219 133.6165 226.4939 15.34409928 11428
STARLINK-37280          
1 68511U 26068D   26162.95404144 -.00018845  00000+0 -54742-3 0  9993
2 68511  53.1593  43.7464 0000500 101.4457 258.6601 15.34434179 11487
STARLINK-37286          
1 68512U 26068E   26162.93722042  .00033283  00000+0  99110-3 0  9991
2 68512  53.1614  43.6438 0001095  71.8094 288.3028 15.34423436 11486
STARLINK-36250          
1 68513U 26068F   26162.94669489  .00031188  00000+0  93049-3 0  9995
2 68513  53.1600  49.5028 0000740  61.8782 298.2296 15.34395438 11400
STARLINK-37251          
1 68514U 26068G   26162.91668981 -.00010973  00000+0 -31415-3 0  9999
2 68514  53.1597  50.1630 0001365  92.7002 205.7274 15.34393353  5704
STARLINK-36293          
1 68515U 26068H   26162.98666950  .00016768  00000+0  50635-3 0  9992
2 68515  53.1590  49.7565 0000521 114.5360 245.5697 15.34396288 11407
STARLINK-36290          
1 68516U 26068J   26162.95300306  .00025965  00000+0  77665-3 0  9991
2 68516  53.1598  49.5358 0001753 142.3339 217.7787 15.34411128 11409
STARLINK-36298          
1 68517U 26068K   26162.91668981 -.00012525  00000+0 -34870-3 0  9995
2 68517  53.1591  50.0699 0000922 134.0814 213.1024 15.35404011  5941
STARLINK-36857          
1 68518U 26068L   26162.95931419  .00030513  00000+0  90980-3 0  9998
2 68518  53.1593  49.5827 0000950  70.7228 289.3878 15.34425725 11400
STARLINK-36326          
1 68519U 26068M   26162.96563108  .00021775  00000+0  65363-3 0  9993
2 68519  53.1588  49.6222 0001244  92.7145 267.4000 15.34404215 11409
STARLINK-37126          
1 68520U 26068N   26162.95511048  .00022581  00000+0  67726-3 0  9991
2 68520  53.1596  49.5574 0001387 106.4808 253.6347 15.34407810 11401
STARLINK-36347          
1 68521U 26068P   26162.93853850  .00010953  00000+0  38136-3 0  9993
2 68521  53.1606  51.5807 0001377  82.5445 277.5712 15.30201846 11370
STARLINK-36322          
1 68522U 26068Q   26162.96773293  .00027764  00000+0  82945-3 0  9994
2 68522  53.1586  49.6286 0000929  97.2380 262.8729 15.34413420 11406
STARLINK-37208          
1 68523U 26068R   26162.94457634 -.00019223  00000+0 -55938-3 0  9996
2 68523  53.1598  49.4829 0000938  55.5751 304.5341 15.34392331 11401
STARLINK-36302          
1 68524U 26068S   26162.97404703  .00021245  00000+0  63813-3 0  9995
2 68524  53.1603  49.6761 0001328  89.1693 270.9462 15.34399818 11405
STARLINK-36311          
1 68525U 26068T   26162.90680823  .00024641  00000+0  73809-3 0  9997
2 68525  53.1592  49.9683 0001064  93.1215 266.9909 15.34397631 11391
STARLINK-37178          
1 68526U 26068U   26162.90489731  .00049643  00000+0  89394-3 0  9998
2 68526  53.1595  49.2488 0001185 126.1150 233.9969 15.49341773 11392
STARLINK-37248          
1 68527U 26068V   26162.96925504  .00028057  00000+0  83834-3 0  9997
2 68527  53.1593  47.4501 0001382  93.4649 266.6512 15.34402976 11434
STARLINK-37241          
1 68528U 26068W   26162.95014230  .00006875  00000+0  24418-3 0  9999
2 68528  53.1611  51.6509 0005139  14.1707 345.9437 15.30180318 11379
STARLINK-37244          
1 68529U 26068X   26162.91941533  .00020881  00000+0  62676-3 0  9992
2 68529  53.1605  50.0515 0001375 105.2554 254.8600 15.34432543 11399
STARLINK-36285          
1 68530U 26068Y   26162.94698296  .00026943  00000+0  91870-3 0  9995
2 68530  53.1609  51.6321 0001531  91.2171 268.9005 15.30192547 11376
STARLINK-36294          
1 68531U 26068Z   26162.94381351  .00024525  00000+0  83738-3 0  9995
2 68531  53.1603  51.6121 0001307  97.7941 262.3208 15.30201575 11371
STARLINK-36249          
1 68532U 26068AA  26162.91732190  .00017803  00000+0  53668-3 0  9994
2 68532  53.1593  50.0365 0001188 102.9792 257.1343 15.34406048 11393
