OBJECT_NAME,OBJECT_ID,EPOCH,MEAN_MOTION,ECCENTRICITY,INCLINATION,RA_OF_ASC_NODE,ARG_OF_PERICENTER,MEAN_ANOMALY,EPHEMERIS_TYPE,CLASSIFICATION_TYPE,NORAD_CAT_ID,ELEMENT_SET_NO,REV_AT_EPOCH,BSTAR,MEAN_MOTION_DOT,MEAN_MOTION_DDOT
STARLINK-36235,2026-063W,2026-06-11T23:10:24.721824,15.33450215,.00009856,97.2850,305.2855,86.3048,273.8307,0,U,68400,999,1234,.501855E-3,.16164E-3,0
STARLINK-37175,2026-063X,2026-06-11T22:11:40.745760,15.33431120,.00013643,97.2845,305.1844,86.2505,273.8894,0,U,68401,999,1233,.42294118E-3,.13598E-3,0
STARLINK-36360,2026-063Y,2026-06-11T21:40:21.545760,15.33449425,.00011344,97.2854,305.2157,106.5201,253.6167,0,U,68402,999,1233,.5245039E-3,.16898E-3,0
STARLINK-37218,2026-063Z,2026-06-11T22:28:13.611360,15.75184619,.00012965,97.2839,307.4606,90.3532,269.7882,0,U,68403,999,1248,.15826846E-2,.242715E-2,0
STARLINK-37188,2026-063AA,2026-06-11T22:39:05.398272,15.33449905,.00003046,97.2856,305.3137,163.0683,197.0570,0,U,68404,999,1234,.61923077E-3,.19972E-3,0
STARLINK-37262,2026-068A,2026-06-11T22:05:28.615776,15.34391115,.00012843,53.1598,44.2405,78.3800,281.7347,0,U,68508,999,1147,.55042856E-3,.18261E-3,0
STARLINK-36292,2026-068B,2026-06-11T22:37:11.019360,15.34396427,.00012979,53.1607,49.4726,75.7406,284.3741,0,U,68509,999,1140,.99305395E-3,.33321E-3,0
STARLINK-37260,2026-068C,2026-06-11T22:18:17.373600,15.34409928,.00012198,53.1590,47.9296,133.6165,226.4939,0,U,68510,999,1142,.87370866E-3,.29268E-3,0
STARLINK-37280,2026-068D,2026-06-11T22:53:49.180416,15.34434179,.00005007,53.1593,43.7464,101.4457,258.6601,0,U,68511,999,1148,-.54742436E-3,-.18845E-3,0
STARLINK-37286,2026-068E,2026-06-11T22:29:35.844288,15.34423436,.00010954,53.1614,43.6438,71.8094,288.3028,0,U,68512,999,1148,.99110291E-3,.33283E-3,0
STARLINK-36250,2026-068F,2026-06-11T22:43:14.438496,15.34395438,.00007409,53.1600,49.5028,61.8782,298.2296,0,U,68513,999,1140,.93049268E-3,.31188E-3,0
STARLINK-37251,2026-068G,2026-06-11T22:00:01.999584,15.34393353,.00013656,53.1597,50.1630,92.7002,205.7274,0,U,68514,999,570,-.3141491E-3,-.10973E-3,0
STARLINK-36293,2026-068H,2026-06-11T23:40:48.244800,15.34396288,.00005211,53.1590,49.7565,114.5360,245.5697,0,U,68515,999,1140,.50634592E-3,.16768E-3,0
STARLINK-36290,2026-068J,2026-06-11T22:52:19.464384,15.34411128,.00017534,53.1598,49.5358,142.3339,217.7787,0,U,68516,999,1140,.77665249E-3,.25965E-3,0
STARLINK-36298,2026-068K,2026-06-11T22:00:01.999584,15.35404011,.00009224,53.1591,50.0699,134.0814,213.1024,0,U,68517,999,594,-.34870176E-3,-.12525E-3,0
STARLINK-36857,2026-068L,2026-06-11T23:01:24.746016,15.34425725,.00009503,53.1593,49.5827,70.7228,289.3878,0,U,68518,999,1140,.90979525E-3,.30513E-3,0
STARLINK-36326,2026-068M,2026-06-11T23:10:30.525312,15.34404215,.00012442,53.1588,49.6222,92.7145,267.4000,0,U,68519,999,1140,.6536252E-3,.21775E-3,0
STARLINK-37126,2026-068N,2026-06-11T22:55:21.545472,15.34407810,.00013874,53.1596,49.5574,106.4808,253.6347,0,U,68520,999,1140,.67726416E-3,.22581E-3,0
STARLINK-36347,2026-068P,2026-06-11T22:31:29.726400,15.30201846,.00013773,53.1606,51.5807,82.5445,277.5712,0,U,68521,999,1137,.38136252E-3,.10953E-3,0
STARLINK-36322,2026-068Q,2026-06-11T23:13:32.125152,15.34413420,.00009295,53.1586,49.6286,97.2380,262.8729,0,U,68522,999,1140,.82945095E-3,.27764E-3,0
STARLINK-37208,2026-068R,2026-06-11T22:40:11.395776,15.34392331,.00009385,53.1598,49.4829,55.5751,304.5341,0,U,68523,999,1140,-.55938103E-3,-.19223E-3,0
STARLINK-36302,2026-068S,2026-06-11T23:22:37.663392,15.34399818,.00013282,53.1603,49.6761,89.1693,270.9462,0,U,68524,999,1140,.63813137E-3,.21245E-3,0
STARLINK-36311,2026-068T,2026-06-11T21:45:48.231072,15.34397631,.00010645,53.1592,49.9683,93.1215,266.9909,0,U,68525,999,1139,.73808954E-3,.24641E-3,0
STARLINK-37178,2026-068U,2026-06-11T21:43:03.127584,15.49341773,.0001185,53.1595,49.2488,126.1150,233.9969,0,U,68526,999,1139,.89394173E-3,.49643E-3,0
STARLINK-37248,2026-068V,2026-06-11T23:15:43.635456,15.34402976,.00013827,53.1593,47.4501,93.4649,266.6512,0,U,68527,999,1143,.83833831E-3,.28057E-3,0
STARLINK-37241,2026-068W,2026-06-11T22:48:12.294720,15.30180318,.00051397,53.1611,51.6509,14.1707,345.9437,0,U,68528,999,1137,.24417876E-3,.6875E-4,0
STARLINK-37244,2026-068X,2026-06-11T22:03:57.484512,15.34432543,.00013751,53.1605,50.0515,105.2554,254.8600,0,U,68529,999,1139,.62676261E-3,.20881E-3,0
STARLINK-36285,2026-068Y,2026-06-11T22:43:39.327744,15.30192547,.00015311,53.1609,51.6321,91.2171,268.9005,0,U,68530,999,1137,.91870243E-3,.26943E-3,0
STARLINK-36294,2026-068Z,2026-06-11T22:39:05.487264,15.30201575,.00013076,53.1603,51.6121,97.7941,262.3208,0,U,68531,999,1137,.83737957E-3,.24525E-3,0
STARLINK-36249,2026-068AA,2026-06-11T22:00:56.612160,15.34406048,.00011882,53.1593,50.0365,102.9792,257.1343,0,U,68532,999,1139,.53668231E-3,.17803E-3,0
